[{"OBJECT_NAME":"QIANFAN-29","OBJECT_ID":"2024-185L","EPOCH":"2026-03-09T23:36:34.988256","MEAN_MOTION":13.5104544,"ECCENTRICITY":0.00107498,"INCLINATION":88.9721,"RA_OF_ASC_NODE":72.2764,"ARG_OF_PERICENTER":148.0314,"MEAN_ANOMALY":212.1491,"EPHEMERIS_TYPE":0,"CLASSIFICATION_TYPE":"U","NORAD_CAT_ID":61562,"ELEMENT_SET_NO":999,"REV_AT_EPOCH":7957,"BSTAR":0.00028956745,"MEAN_MOTION_DOT":1.99e-6,"MEAN_MOTION_DDOT":0},{"OBJECT_NAME":"TRANSIT 20 DEB","OBJECT_ID":"1973-081E","EPOCH":"2026-03-09T22:03:52.723872","MEAN_MOTION":13.75264972,"ECCENTRICITY":0.01420368,"INCLINATION":89.8538,"RA_OF_ASC_NODE":254.0586,"ARG_OF_PERICENTER":161.6302,"MEAN_ANOMALY":199.0069,"EPHEMERIS_TYPE":0,"CLASSIFICATION_TYPE":"U","NORAD_CAT_ID":44565,"ELEMENT_SET_NO":999,"REV_AT_EPOCH":32415,"BSTAR":0.0011292793,"MEAN_MOTION_DOT":1.176e-5,"MEAN_MOTION_DDOT":0}]
